[{"OBJECT_NAME":"JILIN-1 GAOFEN 03D43","OBJECT_ID":"2022-098E","EPOCH":"2026-03-09T22:44:15.785952","MEAN_MOTION":15.57011563,"ECCENTRICITY":0.00021659,"INCLINATION":97.5443,"RA_OF_ASC_NODE":192.8874,"ARG_OF_PERICENTER":13.4231,"MEAN_ANOMALY":346.7081,"EPHEMERIS_TYPE":0,"CLASSIFICATION_TYPE":"U","NORAD_CAT_ID":53448,"ELEMENT_SET_NO":999,"REV_AT_EPOCH":19919,"BSTAR":0.00090276646,"MEAN_MOTION_DOT":0.00065504,"MEAN_MOTION_DDOT":0},{"OBJECT_NAME":"OBJECT E","OBJECT_ID":"2021-091E","EPOCH":"2026-03-09T22:43:30.874368","MEAN_MOTION":15.58552335,"ECCENTRICITY":0.00052438,"INCLINATION":97.3949,"RA_OF_ASC_NODE":285.5924,"ARG_OF_PERICENTER":328.2739,"MEAN_ANOMALY":31.82,"EPHEMERIS_TYPE":0,"CLASSIFICATION_TYPE":"U","NORAD_CAT_ID":49319,"ELEMENT_SET_NO":999,"REV_AT_EPOCH":24586,"BSTAR":0.0004489926,"MEAN_MOTION_DOT":0.00034337,"MEAN_MOTION_DDOT":0}]
